GLOBALSTAR M024 [-]     
1 25883U 99043A   24065.19972473  .00000008  00000+0  25791-2 0  9993
2 25883  52.0061 358.8103 0001977  54.2275  95.0183 11.10156399 62773
GLOBALSTAR M027 [-]     
1 25884U 99043B   24065.36923123 -.00000090  00000+0 -99195-3 0  9994
2 25884  52.0210  63.1271 0021196 314.4247  45.4812 11.04367502 89441
GLOBALSTAR M054 [-]     
1 25885U 99043C   24065.57215028 -.00000032  00000+0  10055-2 0  9998
2 25885  52.0114 268.6191 0005536  89.4699 303.4733 11.39206065 65647
GLOBALSTAR M053 [-]     
1 25886U 99043D   24065.51556062 -.00000078  00000+0 -27442-3 0  9999
2 25886  51.9965 189.8463 0003101  22.1723  60.1760 11.27654058 66570
GLOBALSTAR M058 [-]     
1 25907U 99049A   24065.02222120 -.00000022  00000+0  83860-3 0  9994
2 25907  51.9930 281.9451 0003182  88.7824 271.3375 11.93178347485530
GLOBALSTAR M050 [-]     
1 25908U 99049B   24065.11036757 -.00000080  00000+0  89847-4 0  9990
2 25908  52.0009 324.4293 0008854 172.9100 335.1194 12.07429616 91525
GLOBALSTAR M033 [-]     
1 25909U 99049C   24065.57858687 -.00000015  00000+0  74123-3 0  9993
2 25909  51.9887 227.3427 0011983  31.7756 328.3812 12.20268582478533
GLOBALSTAR M055 [-]     
1 25910U 99049D   24065.55377022 -.00000077  00000+0  14469-3 0  9997
2 25910  51.9997 260.9658 0006210 234.0171 126.0105 12.29396670110644
